{"spkid": "50263561", "covariance": {"elements": [{"sigma": 2.15907002457223e-07, "name": "e", "units": null, "title": "eccentricity", "value": ".6315054974628918", "label": "e"}, {"value": ".7878003121598257", "title": "perihelion distance", "units": "au", "sigma": 4.27559656888303e-07, "name": "q", "label": "q"}, {"label": "tp", "title": "time of perihelion passage", "value": "2453410.568269663903", "units": "TDB", "name": "tp", "sigma": 2.63216620959273e-05}, {"label": "node", "name": "om", "sigma": 3.70966937375174e-05, "units": "deg", "value": "100.5251120843608", "title": "longitude of the ascending node"}, {"label": "peri", "sigma": 6.11597536878889e-05, "name": "w", "value": "59.04976419631117", "title": "argument of perihelion", "units": "deg"}, {"label": "i", "title": "inclination", "value": "2.59872533939856", "units": "deg", "sigma": 1.05661239045651e-05, "name": "i"}], "data": [["4.661583371006329E-14", "-9.23089772771019E-14", "5.603242955885863E-12", "2.717995872617935E-12", "1.085085297444841E-11", "-8.233436767464071E-13"], ["-9.23089772771019E-14", "1.828072601984437E-13", "-1.109999460267655E-11", "-5.386009005011778E-12", "-2.148557832898713E-11", "1.630381657071634E-12"], ["5.603242955885863E-12", "-1.109999460267655E-11", "6.928298954921766E-10", "3.412159246185637E-10", "1.302033789361182E-9", "-9.901022564349444E-11"], ["2.717995872617935E-12", "-5.386009005011778E-12", "3.412159246185637E-10", "1.37616468625516E-9", "-5.772257216346997E-10", "-2.713536748172267E-10"], ["1.085085297444841E-11", "-2.148557832898713E-11", "1.302033789361182E-9", "-5.772257216346997E-10", "3.740515471163239E-9", "3.133879831429298E-11"], ["-8.233436767464071E-13", "1.630381657071634E-12", "-9.901022564349444E-11", "-2.713536748172267E-10", "3.133879831429298E-11", "1.116429743666215E-10"]], "labels": ["e", "q", "tp", "node", "peri", "i"], "epoch": "2453564.5"}, "elements": [{"value": ".6319928032090348", "title": "eccentricity", "units": null, "name": "e", "sigma": "2.2441E-7", "label": "e"}, {"name": "a", "sigma": "8.1387E-8", "units": "au", "title": "semi-major axis", "value": "2.138164222288782", "label": "a"}, {"label": "q", "sigma": "4.5017E-7", "name": "q", "value": ".7868598217232288", "title": "perihelion distance", "units": "au"}, {"label": "i", "name": "i", "sigma": "1.0393E-5", "title": "inclination; angle with respect to x-y ecliptic plane", "value": "2.578601700866214", "units": "deg"}, {"label": "node", "units": "deg", "title": "longitude of the ascending node", "value": "99.50319475619831", "name": "om", "sigma": "4.0262E-5"}, {"label": "peri", "sigma": "6.2819E-5", "name": "w", "title": "argument of perihelion", "value": "60.61272609736112", "units": "deg"}, {"label": "M", "title": "mean anomaly", "value": "296.0834320954018", "units": "deg", "name": "ma", "sigma": ".00015609"}, {"sigma": ".00050671", "name": "tp", "title": "time of perihelion passage", "value": "2461403.254714042160", "units": "TDB", "label": "tp"}, {"sigma": "6.5203E-5", "name": "per", "units": "d", "title": "sidereal orbital period", "value": "1141.983987064591", "label": "period"}, {"label": "n", "sigma": "1.7999E-8", "name": "n", "value": ".3152408475755958", "title": "mean motion", "units": "deg/d"}, {"name": "ad", "sigma": "1.3282E-7", "title": "aphelion distance", "value": "3.489468622854335", "units": "au", "label": "Q"}], "epoch": "2461200.5"}